#dP2024  4 22  0  0  0.00000000      97 __u+U IGS20 FIT  IAC
## 2311  86400.00000000   900.00000000 60422 0.0000000000000
+  118   C06C07C08C09C10C11C12C13C14C16C19C20C21C22C23C24C25
+        C26C27C28C29C30C32C33C34C35C36C37C38C39C40C41C42C43
+        C44C45C46E02E03E04E05E07E08E09E10E11E12E13E14E15E19
+        E21E24E25E26E27E30E31E33E34E36G02G03G04G05G06G07G08
+        G09G10G11G12G13G14G15G16G17G18G19G20G21G22G23G24G25
+        G26G27G28G29G30G31G32J02J03J04R01R02R03R04R05R07R08
+        R09R11R12R13R14R15R16R17R18R19R20R21R22R24R25R26  0
++         7  7  7  7  7  6  6  7  7  7  5  6  5  5  6  5  6
++         6  6  6  6  6  5  6  5  6  6  6  6  6  6  6  6  6
++         5  6  6  4  4  4  4  4  4  4  4  4  4  4  4  4  4
++         4  4  4  4  4  4  4  4  4  4  3  4  3  3  4  3  3
++         3  3  3  3  3  3  4  3  4  3  4  3  3  4  3  4  3
++         4  3  4  3  3  3  3 11 11 11  8  7  6  6  6  9  7
++         6  6  6  8  7  6  6  7  6  7  8  7  7  7  8  8  0
%c M  cc GPS ccc cccc cccc cccc cccc ccccc ccccc ccccc ccccc
%c cc cc ccc ccc cccc cccc cccc cccc ccccc ccccc ccccc ccccc
%f  1.2500000  1.025000000  0.00000000000  0.000000000000000
%f  0.0000000  0.000000000  0.00000000000  0.000000000000000
%i    0    0    0    0      0      0      0      0         0
%i    0    0    0    0      0      0      0      0         0
/* INFORMATION & ANALYSIS CENTER (IAC)            FINAL DATA
/* S/V CLOCKS ARE ALIGNED TO GNSS TIME                      
/* G:C1WC2W R:C1PC2P E:C1XC5X C:C2IC6I J:C1CC2S             
/* PCV:IGS20_2290 OL/AL:FES2004  NONE     YN ORB:CoN CLK:CoN
*  2024 04 22 14 30  0.00000000
PC06  -9581.510799  41188.908901   1618.397410    365.972587
PC07  -5676.328361  28183.022235 -30721.535817   -796.882819
PC08 -19505.051750  24130.754063  28440.621356    -47.743587
PC09  -7427.769132  41598.212677  -4138.835411   -798.252523
PC10   3253.725231  30871.933513 -27996.600192     78.166893
PC11  -7434.033690 -26200.531969  -6038.349535    525.223685
PC12   4689.964764 -24693.780244  12152.241910   -235.536623
PC13 -10930.213295  25288.796206  31986.705254    432.397975
PC14 -14156.146581 -17347.916525 -16681.342361    705.453540
PC16 -13139.302025  39637.787260   7344.048996   -474.559400
PC19  21846.641205  14753.068307   9131.538837   -913.810119
PC20   5872.897756  17362.340294  21044.786208   -386.952583
PC21  15202.779992  -9648.663138 -21291.616486   -963.765921
PC22  26224.985267   3498.431229  -8818.387490    -29.891443
PC23 -22901.288075   4613.999800  15267.084007   -776.210088
PC24   6790.922050 -21276.523653  16731.372646    936.051468
PC25 -11844.617303 -11264.337495  22606.486838    381.323781
PC26  20441.338823 -18974.875164   1347.000747   -280.893385
PC27 -10089.958500  18485.650107 -18338.141387    302.618994
PC28 -16062.565444    844.664340 -22803.231600    231.539493
PC29  13628.471474  20394.456836  13301.487709    271.630988
PC30   2219.975918  27461.249901  -4528.512724    -61.179109
PC32 -15260.249777   9723.429384  21269.426334   -607.248535
PC33 -21936.930819 -14638.917300  -9156.935651   -970.366289
PC34  -3321.257794 -27536.032132   2950.891572    417.825301
PC35  16150.464453  -1116.492476  22714.370640    380.838141
PC36  11448.620587  11647.856005 -22607.597336     59.380251
PC37 -20956.093192  18376.214321  -1100.908439   -962.579049
PC38 -25036.927989  25716.406366  22078.581219    150.604397
PC39 -13594.222026  38051.740554  12524.680027     -8.077138
PC40  -9006.439202  22696.693489 -34347.178924    -66.682435
PC41 -26447.155373  -3951.872306   8078.991562   -930.721567
PC42  -4138.175876 -17144.541447 -21588.938368   -442.825830
PC43 -13303.378096 -21079.936284 -12537.755301     68.952306
PC44   9560.618619 -18714.512555  18325.345654    451.453761
PC45  22862.847229  -4585.499040 -15348.546177    -81.500491
PC46  -6101.630331  20992.430130 -17329.279008   -142.118834
PE02  24848.161182 -10650.996945  12062.493161    121.535494
PE03  13610.159878 -10129.497848 -24251.788085   -108.941379
PE04   2985.804975  24225.806460  16753.295297   -379.660179
PE05  21915.824679   9640.585366 -17390.709659   4740.945252
PE07 -17273.297522 -24047.341525    -20.831120   -116.005195
PE08  -2397.555438 -23860.219185 -17356.194539   -259.084996
PE09  17195.430651  24080.941358    152.386267   -416.455270
PE10   -872.914134  25448.265407  15087.028570   -619.131383
PE11   7014.412386  18672.381899  21864.406728   2997.647189
PE12  -7826.274336  27743.372446   6777.475225  -1005.715578
PE13  -6557.468286 -19114.075804 -21624.068136    -21.158409
PE14  -4158.097271  20285.097090 -17503.124333     14.133249
PE15   8181.290420 -27741.085213  -6261.889130    -98.593048
PE19 -14945.402186   7959.023472  24292.749169   -196.398609
PE21 -28998.997404  -1248.385782   5798.801924   -590.611086
PE24  16029.830080  13217.267589 -21110.381283   -721.794190
PE25  28907.399312   1528.674723  -6190.581365      3.636808
PE26 -17539.204137   1117.633896 -23818.452171    433.250773
PE27 -16354.781677 -12979.763059  20975.605165   -330.883752
PE30   6001.417992 -16930.069734  23514.744933   -225.105354
PE31  -5765.185275  16912.211788 -23596.675566    -21.518083
PE33 -18027.278385  19566.985687 -12977.919122     10.756537
PE34  17857.863733 -20008.310199  12519.980905   -107.119565
PE36  17195.314538   -497.253684  24084.242031   -216.938342
PG02  14520.645078 -19110.529367  11540.381181   -448.979352
PG03  18223.300272 -12313.816676 -14950.662151    324.672993
PG04   8708.044001 -13240.333132 -21277.606286    344.652303
PG05 -25991.429475   5513.739550   1278.856675   -170.071367
PG06  -8906.194566 -13770.799197 -20801.999292    309.578499
PG07   3688.534981 -24763.497063   8619.963299   -112.963355
PG08  15833.733924  -4072.593949  20898.010409    137.194205
PG09  -3567.536060 -21521.406234 -15193.207603    169.637436
PG10  14343.796200  11309.368409  19605.948930    -12.091868
PG11 -15878.412845   -767.899186 -21247.382653   -643.375930
PG12 -20009.031778  10879.379054 -13902.393120   -498.881352
PG13 -17912.296685  -5987.416300  18564.126132    644.797538
PG14 -10169.234896 -13733.336874  20409.782446    382.698874
PG15 -15319.114574   6115.551041  20358.445779    151.168906
PG16  26714.427480    622.937412  -2485.809314   -310.348553
PG17 -12186.864824 -23214.350805   4089.171349    710.595545
PG18  -4064.799388  24531.200181   9069.547689   -598.852996
PG19 -16921.725605 -19906.276272  -5983.617459    471.800543
PG20 -24478.550716    205.897028 -10056.295387    379.242172
PG21  15912.022184 -14115.436728  15681.536774    125.860340
PG22 -17300.609403 -11208.474696  17005.874254     -3.221207
PG23    911.806611  14846.383082  22021.255941    207.244684
PG24 -14824.509850  17949.311187  11984.002773   -462.226829
PG25 -10195.476497  15424.416440 -19311.414571    494.302612
PG26  22007.151455   6029.918377 -14039.828359    163.206024
PG27  19967.963488   8184.916261  15473.540588    -20.136462
PG28   8289.252073  16208.215296 -19354.057954   -213.634858
PG29   -314.172056  20574.166591 -16785.405274   -601.051008
PG30  -4775.003297 -20186.562098  16577.702429   -401.453801
PG31  14399.632709   5635.681814 -21812.630044   -227.980474
PG32  15554.088361  21629.291797   1461.136793   -618.331795
PJ02 -31888.424996  16818.116552 -17209.658409     -4.377656
PJ03 -22822.377747  31353.913386 -11937.343672      0.004491
PJ04 -27197.595703  26038.548766  24899.894886     50.418942
PR01 -13069.919882 -15674.836649 -15307.122314     83.225053
PR02 -21980.650905 -12832.864247   1134.622516    -22.783474
PR03 -18966.399062  -2068.823390  16953.719517     98.758631
PR04  -5625.762576   9143.141916  23173.785514    233.155898
PR05  10648.458037  15791.982030  16994.852480    130.368913
PR07  18551.490967   1597.921470 -17410.721453     80.776836
PR08   5383.403410  -9380.523757 -23035.469508    -75.173831
PR09  15994.793380   1804.685834 -19741.255584    182.440691
PR11  17763.555015 -15503.031519   9721.879996     27.151248
PR12    648.287041 -12583.795842  22203.606216     39.290961
PR13 -14010.671661  -3533.708014  21005.691206    -46.617278
PR14 -22800.946219   9632.070123   6221.603708     26.426424
PR15 -16855.476666  15611.727905 -11073.836025     80.326643
PR16   -953.219245  12575.675798 -22169.989696     24.994647
PR17 -10330.568309   7010.597567 -22234.922803     80.275054
PR18  -6239.048335  21551.762450 -12177.592270    138.446102
PR19   -548.479292  25386.448186   2434.597575   -273.971807
PR20   8080.137230  13513.993112  20087.259987   -111.698489
PR21  10310.346672  -6939.960766  22273.494879    -94.854862
PR22   6616.507319 -21972.453488  11146.134520    115.209296
PR24  -9216.210183 -12594.736541 -20168.890704    -52.863397
PR25  10884.323460  -6873.859080  22026.229527    -30.883316
PR26   6407.228578  -8772.966553 -23052.611761    -23.588015
EOF
